1 27386U 02009A   10205.01003509 -.00000050  00000-0 -23452-5 0  2691
2 27386 098.5494 271.5899 0001118 093.4468 266.6842 14.32247404439015